[
  {
    "OBJECT_NAME": "STARLINK-5979",
    "OBJECT_ID": "23058AE",
    "EPOCH": "2025-11-11T06:14:12.845760",
    "MEAN_MOTION": 15.01260313,
    "ECCENTRICITY": 0.0001926,
    "INCLINATION": 97.5999,
    "RA_OF_ASC_NODE": 314.2893,
    "ARG_OF_PERICENTER": 90.9532,
    "MEAN_ANOMALY": 269.1913,
    "EPHEMERIS_TYPE": 0,
    "CLASSIFICATION_TYPE": "U",
    "NORAD_CAT_ID": 56345,
    "ELEMENT_SET_NO": 999,
    "REV_AT_EPOCH": 14036,
    "BSTAR": 1.0077e-05,
    "MEAN_MOTION_DOT": 7.1e-07,
    "MEAN_MOTION_DDOT": 0.0,
    "TLE_LINE1": "1 56345U 23058AE  25315.25987090  .00000071  00000+0  10077-4 0  9993",
    "TLE_LINE2": "2 56345  97.5999 314.2893 0001926  90.9532 269.1913 15.01260313140366",
    "COMMENT": "Grouped by shell and plane from TLE"
  },
  {
    "OBJECT_NAME": "STARLINK-5837",
    "OBJECT_ID": "23058AF",
    "EPOCH": "2025-11-10T23:55:37.636032",
    "MEAN_MOTION": 15.01263911,
    "ECCENTRICITY": 0.0002295,
    "INCLINATION": 97.6008,
    "RA_OF_ASC_NODE": 314.0261,
    "ARG_OF_PERICENTER": 64.2022,
    "MEAN_ANOMALY": 295.9439,
    "EPHEMERIS_TYPE": 0,
    "CLASSIFICATION_TYPE": "U",
    "NORAD_CAT_ID": 56346,
    "ELEMENT_SET_NO": 999,
    "REV_AT_EPOCH": 14032,
    "BSTAR": 4.1149e-05,
    "MEAN_MOTION_DOT": 4.7e-06,
    "MEAN_MOTION_DDOT": 0.0,
    "TLE_LINE1": "1 56346U 23058AF  25314.99696338  .00000470  00000+0  41149-4 0  9993",
    "TLE_LINE2": "2 56346  97.6008 314.0261 0002295  64.2022 295.9439 15.01263911140327",
    "COMMENT": "Grouped by shell and plane from TLE"
  },
  {
    "OBJECT_NAME": "STARLINK-5829",
    "OBJECT_ID": "23058AG",
    "EPOCH": "2025-11-10T10:26:12.610752",
    "MEAN_MOTION": 15.05656558,
    "ECCENTRICITY": 0.0002002,
    "INCLINATION": 97.6016,
    "RA_OF_ASC_NODE": 313.6937,
    "ARG_OF_PERICENTER": 69.4484,
    "MEAN_ANOMALY": 290.6957,
    "EPHEMERIS_TYPE": 0,
    "CLASSIFICATION_TYPE": "U",
    "NORAD_CAT_ID": 56347,
    "ELEMENT_SET_NO": 999,
    "REV_AT_EPOCH": 14025,
    "BSTAR": 0.0,
    "MEAN_MOTION_DOT": -7.3e-06,
    "MEAN_MOTION_DDOT": 0.0,
    "TLE_LINE1": "1 56347U 23058AG  25314.43486818 -.00000730  00000+0 -46343-4 0  9995",
    "TLE_LINE2": "2 56347  97.6016 313.6937 0002002  69.4484 290.6957 15.05656558140253",
    "COMMENT": "Grouped by shell and plane from TLE"
  },
  {
    "OBJECT_NAME": "STARLINK-5888",
    "OBJECT_ID": "23058AH",
    "EPOCH": "2025-11-11T06:22:34.034016",
    "MEAN_MOTION": 15.01261315,
    "ECCENTRICITY": 0.0003745,
    "INCLINATION": 97.6007,
    "RA_OF_ASC_NODE": 314.2851,
    "ARG_OF_PERICENTER": 51.5375,
    "MEAN_ANOMALY": 308.6185,
    "EPHEMERIS_TYPE": 0,
    "CLASSIFICATION_TYPE": "U",
    "NORAD_CAT_ID": 56348,
    "ELEMENT_SET_NO": 999,
    "REV_AT_EPOCH": 14036,
    "BSTAR": 5.455e-05,
    "MEAN_MOTION_DOT": 6.42e-06,
    "MEAN_MOTION_DDOT": 0.0,
    "TLE_LINE1": "1 56348U 23058AH  25315.26567169  .00000642  00000+0  54550-4 0  9996",
    "TLE_LINE2": "2 56348  97.6007 314.2851 0003745  51.5375 308.6185 15.01261315140366",
    "COMMENT": "Grouped by shell and plane from TLE"
  },
  {
    "OBJECT_NAME": "STARLINK-5887",
    "OBJECT_ID": "23058AJ",
    "EPOCH": "2025-11-11T06:03:32.517216",
    "MEAN_MOTION": 15.01265503,
    "ECCENTRICITY": 0.0001629,
    "INCLINATION": 97.601,
    "RA_OF_ASC_NODE": 314.296,
    "ARG_OF_PERICENTER": 88.7099,
    "MEAN_ANOMALY": 271.4312,
    "EPHEMERIS_TYPE": 0,
    "CLASSIFICATION_TYPE": "U",
    "NORAD_CAT_ID": 56349,
    "ELEMENT_SET_NO": 999,
    "REV_AT_EPOCH": 14036,
    "BSTAR": 3.0788e-05,
    "MEAN_MOTION_DOT": 3.37e-06,
    "MEAN_MOTION_DDOT": 0.0,
    "TLE_LINE1": "1 56349U 23058AJ  25315.25245969  .00000337  00000+0  30788-4 0  9995",
    "TLE_LINE2": "2 56349  97.6010 314.2960 0001629  88.7099 271.4312 15.01265503140368",
    "COMMENT": "Grouped by shell and plane from TLE"
  },
  {
    "OBJECT_NAME": "STARLINK-5886",
    "OBJECT_ID": "23058AK",
    "EPOCH": "2025-11-10T22:59:50.859456",
    "MEAN_MOTION": 15.05651943,
    "ECCENTRICITY": 0.0001752,
    "INCLINATION": 97.602,
    "RA_OF_ASC_NODE": 314.2292,
    "ARG_OF_PERICENTER": 87.1323,
    "MEAN_ANOMALY": 273.0105,
    "EPHEMERIS_TYPE": 0,
    "CLASSIFICATION_TYPE": "U",
    "NORAD_CAT_ID": 56350,
    "ELEMENT_SET_NO": 999,
    "REV_AT_EPOCH": 14033,
    "BSTAR": 4.4231e-05,
    "MEAN_MOTION_DOT": 5.78e-06,
    "MEAN_MOTION_DDOT": 0.0,
    "TLE_LINE1": "1 56350U 23058AK  25314.95822754  .00000578  00000+0  44231-4 0  9991",
    "TLE_LINE2": "2 56350  97.6020 314.2292 0001752  87.1323 273.0105 15.05651943140335",
    "COMMENT": "Grouped by shell and plane from TLE"
  },
  {
    "OBJECT_NAME": "STARLINK-5891",
    "OBJECT_ID": "23058AL",
    "EPOCH": "2025-11-11T05:58:31.884096",
    "MEAN_MOTION": 15.05647279,
    "ECCENTRICITY": 0.0001887,
    "INCLINATION": 97.603,
    "RA_OF_ASC_NODE": 314.459,
    "ARG_OF_PERICENTER": 88.8111,
    "MEAN_ANOMALY": 271.3332,
    "EPHEMERIS_TYPE": 0,
    "CLASSIFICATION_TYPE": "U",
    "NORAD_CAT_ID": 56351,
    "ELEMENT_SET_NO": 999,
    "REV_AT_EPOCH": 14037,
    "BSTAR": 2.8569e-05,
    "MEAN_MOTION_DOT": 3.51e-06,
    "MEAN_MOTION_DDOT": 0.0,
    "TLE_LINE1": "1 56351U 23058AL  25315.24898014  .00000351  00000+0  28569-4 0  9992",
    "TLE_LINE2": "2 56351  97.6030 314.4590 0001887  88.8111 271.3332 15.05647279140376",
    "COMMENT": "Grouped by shell and plane from TLE"
  },
  {
    "OBJECT_NAME": "STARLINK-5885",
    "OBJECT_ID": "23058AM",
    "EPOCH": "2025-11-10T23:44:58.190496",
    "MEAN_MOTION": 15.01267244,
    "ECCENTRICITY": 0.0001912,
    "INCLINATION": 97.6018,
    "RA_OF_ASC_NODE": 314.0311,
    "ARG_OF_PERICENTER": 94.5286,
    "MEAN_ANOMALY": 265.6157,
    "EPHEMERIS_TYPE": 0,
    "CLASSIFICATION_TYPE": "U",
    "NORAD_CAT_ID": 56352,
    "ELEMENT_SET_NO": 999,
    "REV_AT_EPOCH": 14032,
    "BSTAR": 0.0,
    "MEAN_MOTION_DOT": -1.078e-05,
    "MEAN_MOTION_DDOT": 0.0,
    "TLE_LINE1": "1 56352U 23058AM  25314.98956239 -.00001078  00000+0 -79390-4 0  9994",
    "TLE_LINE2": "2 56352  97.6018 314.0311 0001912  94.5286 265.6157 15.01267244140328",
    "COMMENT": "Grouped by shell and plane from TLE"
  },
  {
    "OBJECT_NAME": "STARLINK-5874",
    "OBJECT_ID": "23058AN",
    "EPOCH": "2025-11-11T05:42:12.553920",
    "MEAN_MOTION": 15.01262223,
    "ECCENTRICITY": 0.0002195,
    "INCLINATION": 97.6023,
    "RA_OF_ASC_NODE": 314.3125,
    "ARG_OF_PERICENTER": 152.7007,
    "MEAN_ANOMALY": 207.4334,
    "EPHEMERIS_TYPE": 0,
    "CLASSIFICATION_TYPE": "U",
    "NORAD_CAT_ID": 56353,
    "ELEMENT_SET_NO": 999,
    "REV_AT_EPOCH": 14036,
    "BSTAR": 3.0617e-05,
    "MEAN_MOTION_DOT": 3.35e-06,
    "MEAN_MOTION_DDOT": 0.0,
    "TLE_LINE1": "1 56353U 23058AN  25315.23764530  .00000335  00000+0  30617-4 0  9997",
    "TLE_LINE2": "2 56353  97.6023 314.3125 0002195 152.7007 207.4334 15.01262223140360",
    "COMMENT": "Grouped by shell and plane from TLE"
  },
  {
    "OBJECT_NAME": "STARLINK-5877",
    "OBJECT_ID": "23058AP",
    "EPOCH": "2025-11-11T06:26:24.446400",
    "MEAN_MOTION": 15.05672378,
    "ECCENTRICITY": 0.0003467,
    "INCLINATION": 97.6008,
    "RA_OF_ASC_NODE": 314.4333,
    "ARG_OF_PERICENTER": 94.0741,
    "MEAN_ANOMALY": 266.0883,
    "EPHEMERIS_TYPE": 0,
    "CLASSIFICATION_TYPE": "U",
    "NORAD_CAT_ID": 56354,
    "ELEMENT_SET_NO": 999,
    "REV_AT_EPOCH": 14037,
    "BSTAR": 0.00021255,
    "MEAN_MOTION_DOT": 3.01e-05,
    "MEAN_MOTION_DDOT": 0.0,
    "TLE_LINE1": "1 56354U 23058AP  25315.26833850  .00003010  00000+0  21255-3 0  9993",
    "TLE_LINE2": "2 56354  97.6008 314.4333 0003467  94.0741 266.0883 15.05672378140373",
    "COMMENT": "Grouped by shell and plane from TLE"
  },
  {
    "OBJECT_NAME": "STARLINK-5533",
    "OBJECT_ID": "23058AQ",
    "EPOCH": "2025-11-11T05:52:51.815424",
    "MEAN_MOTION": 15.01270831,
    "ECCENTRICITY": 8.45e-05,
    "INCLINATION": 97.6017,
    "RA_OF_ASC_NODE": 314.3042,
    "ARG_OF_PERICENTER": 218.156,
    "MEAN_ANOMALY": 141.9605,
    "EPHEMERIS_TYPE": 0,
    "CLASSIFICATION_TYPE": "U",
    "NORAD_CAT_ID": 56355,
    "ELEMENT_SET_NO": 999,
    "REV_AT_EPOCH": 14036,
    "BSTAR": 0.0,
    "MEAN_MOTION_DOT": -3.782e-05,
    "MEAN_MOTION_DDOT": 0.0,
    "TLE_LINE1": "1 56355U 23058AQ  25315.24504416 -.00003782  00000+0 -28999-3 0  9995",
    "TLE_LINE2": "2 56355  97.6017 314.3042 0000845 218.1560 141.9605 15.01270831140361",
    "COMMENT": "Grouped by shell and plane from TLE"
  },
  {
    "OBJECT_NAME": "STARLINK-5535",
    "OBJECT_ID": "23058AR",
    "EPOCH": "2025-11-11T05:54:32.399712",
    "MEAN_MOTION": 15.05641665,
    "ECCENTRICITY": 0.0001703,
    "INCLINATION": 97.6029,
    "RA_OF_ASC_NODE": 314.4612,
    "ARG_OF_PERICENTER": 88.9865,
    "MEAN_ANOMALY": 271.1557,
    "EPHEMERIS_TYPE": 0,
    "CLASSIFICATION_TYPE": "U",
    "NORAD_CAT_ID": 56356,
    "ELEMENT_SET_NO": 999,
    "REV_AT_EPOCH": 14037,
    "BSTAR": 0.0,
    "MEAN_MOTION_DOT": -1.023e-05,
    "MEAN_MOTION_DDOT": 0.0,
    "TLE_LINE1": "1 56356U 23058AR  25315.24620833 -.00001023  00000+0 -66694-4 0  9999",
    "TLE_LINE2": "2 56356  97.6029 314.4612 0001703  88.9865 271.1557 15.05641665140378",
    "COMMENT": "Grouped by shell and plane from TLE"
  },
  {
    "OBJECT_NAME": "STARLINK-5538",
    "OBJECT_ID": "23058AS",
    "EPOCH": "2025-11-11T00:19:36.147648",
    "MEAN_MOTION": 15.05648407,
    "ECCENTRICITY": 0.0001531,
    "INCLINATION": 97.6031,
    "RA_OF_ASC_NODE": 314.3099,
    "ARG_OF_PERICENTER": 88.2825,
    "MEAN_ANOMALY": 271.8577,
    "EPHEMERIS_TYPE": 0,
    "CLASSIFICATION_TYPE": "U",
    "NORAD_CAT_ID": 56357,
    "ELEMENT_SET_NO": 999,
    "REV_AT_EPOCH": 14034,
    "BSTAR": 4.9877000000000004e-05,
    "MEAN_MOTION_DOT": 6.59e-06,
    "MEAN_MOTION_DDOT": 0.0,
    "TLE_LINE1": "1 56357U 23058AS  25315.01361282  .00000659  00000+0  49877-4 0  9991",
    "TLE_LINE2": "2 56357  97.6031 314.3099 0001531  88.2825 271.8577 15.05648407140345",
    "COMMENT": "Grouped by shell and plane from TLE"
  }
]